[
    {
        "Altitude(m)": 612513.8965168593,
        "Argument of Periapsis(deg)": 0.0,
        "Eccentricity": 0.0,
        "Inclination(deg)": 60.0,
        "Latitude(deg)": -28.13584971325992,
        "Longitude(deg)": 112.91310134390687,
        "Mean Anomaly(deg)": 212.7273,
        "RAAN(deg)": 15.0,
        "Satellite Name": "Test1 79",
        "Satellite Number": 79,
        "Semi-Major Axis(m)": 6980739.136638005,
        "Time(s)": 0
    },
    {
        "Altitude(m)": 612708.2641280972,
        "Argument of Periapsis(deg)": 0.00010418945913296404,
        "Eccentricity": 0.0,
        "Inclination(deg)": 60.0,
        "Latitude(deg)": -28.647589044313044,
        "Longitude(deg)": 113.27033104532745,
        "Mean Anomaly(deg)": 213.34740614546183,
        "RAAN(deg)": 14.999579950860259,
        "Satellite Name": "Test1 79",
        "Satellite Number": 79,
        "Semi-Major Axis(m)": 6980739.136638005,
        "Time(s)": 10
    },
    {
        "Altitude(m)": 612903.458426946,
        "Argument of Periapsis(deg)": 0.0002083789182659281,
        "Eccentricity": 0.0,
        "Inclination(deg)": 60.0,
        "Latitude(deg)": -29.158088230264706,
        "Longitude(deg)": 113.63142795316877,
        "Mean Anomaly(deg)": 213.96751229092365,
        "RAAN(deg)": 14.999159901720514,
        "Satellite Name": "Test1 79",
        "Satellite Number": 79,
        "Semi-Major Axis(m)": 6980739.136638005,
        "Time(s)": 20
    },
    {
        "Altitude(m)": 613099.4082034511,
        "Argument of Periapsis(deg)": 0.00031256837739889213,
        "Eccentricity": 0.0,
        "Inclination(deg)": 60.0,
        "Latitude(deg)": -29.667310202374754,
        "Longitude(deg)": 113.99650353762641,
        "Mean Anomaly(deg)": 214.58761843638547,
        "RAAN(deg)": 14.99873985258077,
        "Satellite Name": "Test1 79",
        "Satellite Number": 79,
        "Semi-Major Axis(m)": 6980739.136638005,
        "Time(s)": 30
    },
    {
        "Altitude(m)": 613296.0417658115,
        "Argument of Periapsis(deg)": 0.0004167578365318562,
        "Eccentricity": 0.0,
        "Inclination(deg)": 60.0,
        "Latitude(deg)": -30.17521690114672,
        "Longitude(deg)": 114.36567225631576,
        "Mean Anomaly(deg)": 215.20772458184732,
        "RAAN(deg)": 14.998319803441028,
        "Satellite Name": "Test1 79",
        "Satellite Number": 79,
        "Semi-Major Axis(m)": 6980739.136638005,
        "Time(s)": 40
    },
    {
        "Altitude(m)": 613493.2869720602,
        "Argument of Periapsis(deg)": 0.0005209472956648203,
        "Eccentricity": 0.0,
        "Inclination(deg)": 60.0,
        "Latitude(deg)": -30.68176923781861,
        "Longitude(deg)": 114.73905061196069,
        "Mean Anomaly(deg)": 215.82783072730916,
        "RAAN(deg)": 14.997899754301287,
        "Satellite Name": "Test1 79",
        "Satellite Number": 79,
        "Semi-Major Axis(m)": 6980739.136638005,
        "Time(s)": 50
    },
    {
        "Altitude(m)": 613691.0712620098,
        "Argument of Periapsis(deg)": 0.0006251367547977843,
        "Eccentricity": 0.0,
        "Inclination(deg)": 60.0,
        "Latitude(deg)": -31.18692705451569,
        "Longitude(deg)": 115.116757723069,
        "Mean Anomaly(deg)": 216.44793687277095,
        "RAAN(deg)": 14.997479705161544,
        "Satellite Name": "Test1 79",
        "Satellite Number": 79,
        "Semi-Major Axis(m)": 6980739.136638005,
        "Time(s)": 60
    },
    {
        "Altitude(m)": 613889.3216892773,
        "Argument of Periapsis(deg)": 0.0007293262139307483,
        "Eccentricity": 0.0,
        "Inclination(deg)": 60.0,
        "Latitude(deg)": -31.690649083023114,
        "Longitude(deg)": 115.49891589455623,
        "Mean Anomaly(deg)": 217.0680430182328,
        "RAAN(deg)": 14.997059656021802,
        "Satellite Name": "Test1 79",
        "Satellite Number": 79,
        "Semi-Major Axis(m)": 6980739.136638005,
        "Time(s)": 70
    },
    {
        "Altitude(m)": 614087.9649535725,
        "Argument of Periapsis(deg)": 0.0008335156730637124,
        "Eccentricity": 0.0,
        "Inclination(deg)": 60.0,
        "Latitude(deg)": -32.192892902139505,
        "Longitude(deg)": 115.8856496752604,
        "Mean Anomaly(deg)": 217.6881491636947,
        "RAAN(deg)": 14.996639606882056,
        "Satellite Name": "Test1 79",
        "Satellite Number": 79,
        "Semi-Major Axis(m)": 6980739.136638005,
        "Time(s)": 80
    },
    {
        "Altitude(m)": 614286.9274330483,
        "Argument of Periapsis(deg)": 0.0009377051321966765,
        "Eccentricity": 0.0,
        "Inclination(deg)": 60.0,
        "Latitude(deg)": -32.69361489357536,
        "Longitude(deg)": 116.27708642787901,
        "Mean Anomaly(deg)": 218.30825530915646,
        "RAAN(deg)": 14.996219557742315,
        "Satellite Name": "Test1 79",
        "Satellite Number": 79,
        "Semi-Major Axis(m)": 6980739.136638005,
        "Time(s)": 90
    },
    {
        "Altitude(m)": 614486.1352168503,
        "Argument of Periapsis(deg)": 0.0010418945913296407,
        "Eccentricity": 0.0,
        "Inclination(deg)": 60.0,
        "Latitude(deg)": -33.19277019635783,
        "Longitude(deg)": 116.67335689822272,
        "Mean Anomaly(deg)": 218.9283614546183,
        "RAAN(deg)": 14.995799508602571,
        "Satellite Name": "Test1 79",
        "Satellite Number": 79,
        "Semi-Major Axis(m)": 6980739.136638005,
        "Time(s)": 100
    },
    {
        "Altitude(m)": 614685.5141377157,
        "Argument of Periapsis(deg)": 0.0011460840504626045,
        "Eccentricity": 0.0,
        "Inclination(deg)": 60.0,
        "Latitude(deg)": -33.690312659704546,
        "Longitude(deg)": 117.07459427064683,
        "Mean Anomaly(deg)": 219.54846760008016,
        "RAAN(deg)": 14.99537945946283,
        "Satellite Name": "Test1 79",
        "Satellite Number": 79,
        "Semi-Major Axis(m)": 6980739.136638005,
        "Time(s)": 110
    },
    {
        "Altitude(m)": 614884.989804729,
        "Argument of Periapsis(deg)": 0.0012502735095955685,
        "Eccentricity": 0.0,
        "Inclination(deg)": 60.0,
        "Latitude(deg)": -34.18619479433636,
        "Longitude(deg)": 117.4809347351126,
        "Mean Anomaly(deg)": 220.168573745542,
        "RAAN(deg)": 14.994959410323089,
        "Satellite Name": "Test1 79",
        "Satellite Number": 79,
        "Semi-Major Axis(m)": 6980739.136638005,
        "Time(s)": 120
    },
    {
        "Altitude(m)": 615084.4876361219,
        "Argument of Periapsis(deg)": 0.0013544629687285324,
        "Eccentricity": 0.0,
        "Inclination(deg)": 60.0,
        "Latitude(deg)": -34.68036772219319,
        "Longitude(deg)": 117.89251805267595,
        "Mean Anomaly(deg)": 220.78867989100377,
        "RAAN(deg)": 14.994539361183342,
        "Satellite Name": "Test1 79",
        "Satellite Number": 79,
        "Semi-Major Axis(m)": 6980739.136638005,
        "Time(s)": 130
    },
    {
        "Altitude(m)": 615283.9328921661,
        "Argument of Periapsis(deg)": 0.0014586524278614966,
        "Eccentricity": 0.0,
        "Inclination(deg)": 60.0,
        "Latitude(deg)": -35.172781124525464,
        "Longitude(deg)": 118.30948660617042,
        "Mean Anomaly(deg)": 221.4087860364657,
        "RAAN(deg)": 14.994119312043603,
        "Satellite Name": "Test1 79",
        "Satellite Number": 79,
        "Semi-Major Axis(m)": 6980739.136638005,
        "Time(s)": 140
    },
    {
        "Altitude(m)": 615483.2507081039,
        "Argument of Periapsis(deg)": 0.0015628418869944607,
        "Eccentricity": 0.0,
        "Inclination(deg)": 60.0,
        "Latitude(deg)": -35.663383188334386,
        "Longitude(deg)": 118.73198596142265,
        "Mean Anomaly(deg)": 222.02889218192746,
        "RAAN(deg)": 14.993699262903858,
        "Satellite Name": "Test1 79",
        "Satellite Number": 79,
        "Semi-Major Axis(m)": 6980739.136638005,
        "Time(s)": 150
    },
    {
        "Altitude(m)": 615682.3661271227,
        "Argument of Periapsis(deg)": 0.0016670313461274247,
        "Eccentricity": 0.0,
        "Inclination(deg)": 60.0,
        "Latitude(deg)": -36.15212055113967,
        "Longitude(deg)": 119.16016542568471,
        "Mean Anomaly(deg)": 222.6489983273893,
        "RAAN(deg)": 14.993279213764117,
        "Satellite Name": "Test1 79",
        "Satellite Number": 79,
        "Semi-Major Axis(m)": 6980739.136638005,
        "Time(s)": 160
    },
    {
        "Altitude(m)": 615881.2041333364,
        "Argument of Periapsis(deg)": 0.0017712208052603888,
        "Eccentricity": 0.0,
        "Inclination(deg)": 60.0,
        "Latitude(deg)": -36.638938244053314,
        "Longitude(deg)": 119.59417708991893,
        "Mean Anomaly(deg)": 223.26910447285115,
        "RAAN(deg)": 14.992859164624372,
        "Satellite Name": "Test1 79",
        "Satellite Number": 79,
        "Semi-Major Axis(m)": 6980739.136638005,
        "Time(s)": 170
    },
    {
        "Altitude(m)": 616079.6896848269,
        "Argument of Periapsis(deg)": 0.001875410264393353,
        "Eccentricity": 0.0,
        "Inclination(deg)": 60.0,
        "Latitude(deg)": -37.123779633149915,
        "Longitude(deg)": 120.0341763801383,
        "Mean Anomaly(deg)": 223.88921061831297,
        "RAAN(deg)": 14.99243911548463,
        "Satellite Name": "Test1 79",
        "Satellite Number": 79,
        "Semi-Major Axis(m)": 6980739.136638005,
        "Time(s)": 180
    },
    {
        "Altitude(m)": 616277.7477465793,
        "Argument of Periapsis(deg)": 0.0019795997235263173,
        "Eccentricity": 0.0,
        "Inclination(deg)": 60.0,
        "Latitude(deg)": -37.606586359124314,
        "Longitude(deg)": 120.48032260433587,
        "Mean Anomaly(deg)": 224.50931676377476,
        "RAAN(deg)": 14.992019066344888,
        "Satellite Name": "Test1 79",
        "Satellite Number": 79,
        "Semi-Major Axis(m)": 6980739.136638005,
        "Time(s)": 190
    }
]